$$SOE
2460721.500000000, A.D. 2025-Feb-15 00:00:00.0000, 3.061689454023116E+08, -3.849217540284292E+08, -1.087111782200715E+07,
2460728.500000000, A.D. 2025-Feb-22 00:00:00.0000, 3.134664757484471E+08, -3.770305601085373E+08, -1.158082652616879E+07,
2460735.500000000, A.D. 2025-Mar-01 00:00:00.0000, 3.206350234993386E+08, -3.689842950253916E+08, -1.228576959321661E+07,
2460742.500000000, A.D. 2025-Mar-08 00:00:00.0000, 3.276704486452084E+08, -3.607848955047959E+08, -1.298561153964877E+07,
2460749.500000000, A.D. 2025-Mar-15 00:00:00.0000, 3.345686267361458E+08, -3.524344339343880E+08, -1.368001424586144E+07,
2460756.500000000, A.D. 2025-Mar-22 00:00:00.0000, 3.413254521658288E+08, -3.439351194502163E+08, -1.436863705121131E+07,
2460763.500000000, A.D. 2025-Mar-29 00:00:00.0000, 3.479368430007194E+08, -3.352893010334125E+08, -1.505113717649025E+07,
2460770.500000000, A.D. 2025-Apr-05 00:00:00.0000, 3.543987476692015E+08, -3.264994694616669E+08, -1.572717024713059E+07,
2460777.500000000, A.D. 2025-Apr-12 00:00:00.0000, 3.607071515726902E+08, -3.175682579957147E+08, -1.639639073182069E+07,
2460784.500000000, A.D. 2025-Apr-19 00:00:00.0000, 3.668580834176877E+08, -3.084984426668103E+08, -1.705845235110000E+07,
2460791.500000000, A.D. 2025-Apr-26 00:00:00.0000, 3.728476215250427E+08, -2.992929423532736E+08, -1.771300849702421E+07,
2460798.500000000, A.D. 2025-May-03 00:00:00.0000, 3.786719002132903E+08, -2.899548186127512E+08, -1.835971267218429E+07,
2460805.500000000, A.D. 2025-May-10 00:00:00.0000, 3.843271162664073E+08, -2.804872752483808E+08, -1.899821894926143E+07,
2460812.500000000, A.D. 2025-May-17 00:00:00.0000, 3.898095355028532E+08, -2.708936576378285E+08, -1.962818245695442E+07,
2460819.500000000, A.D. 2025-May-24 00:00:00.0000, 3.951154995984488E+08, -2.611774518684824E+08, -2.024925991164511E+07,
2460826.500000000, A.D. 2025-May-31 00:00:00.0000, 4.002414335588268E+08, -2.513422833577326E+08, -2.086111020648107E+07,
2460833.500000000, A.D. 2025-Jun-07 00:00:00.0000, 4.051838534184879E+08, -2.413919137459251E+08, -2.146339492122380E+07,
2460840.500000000, A.D. 2025-Jun-14 00:00:00.0000, 4.099393717784342E+08, -2.313302367244228E+08, -2.205577858895753E+07,
2460847.500000000, A.D. 2025-Jun-21 00:00:00.0000, 4.145047023722214E+08, -2.211612760667675E+08, -2.263792909699814E+07,
2460854.500000000, A.D. 2025-Jun-28 00:00:00.0000, 4.188766667601323E+08, -2.108891840947729E+08, -2.320951836293018E+07,
2460861.500000000, A.D. 2025-Jul-05 00:00:00.0000, 4.230522016069110E+08, -2.005182384212449E+08, -2.377022296847832E+07,
2460868.500000000, A.D. 2025-Jul-12 00:00:00.0000, 4.270283653246748E+08, -1.900528377750348E+08, -2.431972470576261E+07,
2460875.500000000, A.D. 2025-Jul-19 00:00:00.0000, 4.308023442438578E+08, -1.794974974861029E+08, -2.485771109826120E+07,
2460882.500000000, A.D. 2025-Jul-26 00:00:00.0000, 4.343714584963139E+08, -1.688568446926614E+08, -2.538387591827991E+07,
2460889.500000000, A.D. 2025-Aug-02 00:00:00.0000, 4.377331676506434E+08, -1.581356132575070E+08, -2.589791970304722E+07,
2460896.500000000, A.D. 2025-Aug-09 00:00:00.0000, 4.408850760976757E+08, -1.473386384198942E+08, -2.639955027061086E+07,
2460903.500000000, A.D. 2025-Aug-16 00:00:00.0000, 4.438249382370234E+08, -1.364708512602831E+08, -2.688848324553035E+07,
2460910.500000000, A.D. 2025-Aug-23 00:00:00.0000, 4.465506637307068E+08, -1.255372729771679E+08, -2.736444261752914E+07,
2460917.500000000, A.D. 2025-Aug-30 00:00:00.0000, 4.490603231268851E+08, -1.145430082784840E+08, -2.782716130246828E+07,
2460924.500000000, A.D. 2025-Sep-06 00:00:00.0000, 4.513521524127687E+08, -1.034932369058487E+08, -2.827638149132759E+07,
2460931.500000000, A.D. 2025-Sep-13 00:00:00.0000, 4.534245548051397E+08, -9.239320579672754E+07, -2.871185483452316E+07,
2460938.500000000, A.D. 2025-Sep-20 00:00:00.0000, 4.552761030298884E+08, -8.124822355264282E+07, -2.913334289389155E+07,
2460945.500000000, A.D. 2025-Sep-27 00:00:00.0000, 4.569055431289282E+08, -7.006365412541822E+07, -2.954061770286574E+07,
2460952.500000000, A.D. 2025-Oct-04 00:00:00.0000, 4.583117977615764E+08, -5.884490920745780E+07, -2.993346220372237E+07,
2460959.500000000, A.D. 2025-Oct-11 00:00:00.0000, 4.594939686133967E+08, -4.759744029637310E+07, -3.031167060289741E+07,
2460966.500000000, A.D. 2025-Oct-18 00:00:00.0000, 4.604513381850785E+08, -3.632673073716327E+07, -3.067504869127148E+07,
2460973.500000000, A.D. 2025-Oct-25 00:00:00.0000, 4.611833710920955E+08, -2.503828776083580E+07, -3.102341414000986E+07,
2460980.500000000, A.D. 2025-Nov-01 00:00:00.0000, 4.616897149081889E+08, -1.373763453470762E+07, -3.135659677320582E+07,
2460987.500000000, A.D. 2025-Nov-08 00:00:00.0000, 4.619702005832786E+08, -2.430302287150452E+06, -3.167443882216388E+07,
2460994.500000000, A.D. 2025-Nov-15 00:00:00.0000, 4.620248425819807E+08, 8.878177402774341E+06, -3.197679517897580E+07,
2461001.500000000, A.D. 2025-Nov-22 00:00:00.0000, 4.618538391452399E+08, 2.018228033889071E+07, -3.226353366777743E+07,
2461008.500000000, A.D. 2025-Nov-29 00:00:00.0000, 4.614575725235139E+08, 3.147649856907619E+07, -3.253453522633418E+07,
2461015.500000000, A.D. 2025-Dec-06 00:00:00.0000, 4.608366069106901E+08, 4.275535020874456E+07, -3.278969379984285E+07,
2461022.500000000, A.D. 2025-Dec-13 00:00:00.0000, 4.599916845229950E+08, 5.401338682567976E+07, -3.302891626226943E+07,
2461029.500000000, A.D. 2025-Dec-20 00:00:00.0000, 4.589237233259469E+08, 6.524519937897377E+07, -3.325212260215597E+07,
2461036.500000000, A.D. 2025-Dec-27 00:00:00.0000, 4.576338153469859E+08, 7.644542527575545E+07, -3.345924606272516E+07,
2461043.500000000, A.D. 2026-Jan-03 00:00:00.0000, 4.561232241296693E+08, 8.760875590426047E+07, -3.365023315302902E+07,
2461050.500000000, A.D. 2026-Jan-10 00:00:00.0000, 4.543933814567089E+08, 9.872994393972374E+07, -3.382504359616671E+07,
2461057.500000000, A.D. 2026-Jan-17 00:00:00.0000, 4.524458835936373E+08, 1.098038103086067E+08, -3.398365024400707E+07,
2461064.500000000, A.D. 2026-Jan-24 00:00:00.0000, 4.502824871518900E+08, 1.208252508128498E+08, -3.412603896446837E+07,
2461071.500000000, A.D. 2026-Jan-31 00:00:00.0000, 4.479051046171923E+08, 1.317892423878210E+08, -3.425220850502266E+07,
2461078.500000000, A.D. 2026-Feb-07 00:00:00.0000, 4.453157996287612E+08, 1.426908489197192E+08, -3.436217034383124E+07,
2461085.500000000, A.D. 2026-Feb-14 00:00:00.0000, 4.425167822876571E+08, 1.535252265918876E+08, -3.445594855424571E+07,
2461092.500000000, A.D. 2026-Feb-21 00:00:00.0000, 4.395104049071330E+08, 1.642876293229851E+08, -3.453357967241757E+07,
2461099.500000000, A.D. 2026-Feb-28 00:00:00.0000, 4.362991571443796E+08, 1.749734154388091E+08, -3.459511237545299E+07,
2461106.500000000, A.D. 2026-Mar-07 00:00:00.0000, 4.328856584813889E+08, 1.855780536196508E+08, -3.464060694198453E+07,
2461113.500000000, A.D. 2026-Mar-14 00:00:00.0000, 4.292726508585786E+08, 1.960971257826947E+08, -3.467013494209757E+07,
2461120.500000000, A.D. 2026-Mar-21 00:00:00.0000, 4.254629932686788E+08, 2.065263297908077E+08, -3.468377908479137E+07,
2461127.500000000, A.D. 2026-Mar-28 00:00:00.0000, 4.214596563253459E+08, 2.168614830140349E+08, -3.468163295592716E+07,
2461134.500000000, A.D. 2026-Apr-04 00:00:00.0000, 4.172657162285272E+08, 2.270985257790410E+08, -3.466380067173829E+07,
2461141.500000000, A.D. 2026-Apr-11 00:00:00.0000, 4.128843484272448E+08, 2.372335243490868E+08, -3.463039650416034E+07,
2461148.500000000, A.D. 2026-Apr-18 00:00:00.0000, 4.083188211656628E+08, 2.472626734314391E+08, -3.458154449490795E+07,
2461155.500000000, A.D. 2026-Apr-25 00:00:00.0000, 4.035724889837944E+08, 2.571822982315534E+08, -3.451737806301912E+07,
2461162.500000000, A.D. 2026-May-02 00:00:00.0000, 3.986487862275832E+08, 2.669888560303922E+08, -3.443803961273690E+07,
2461169.500000000, A.D. 2026-May-09 00:00:00.0000, 3.935512207156120E+08, 2.766789372262567E+08, -3.434368016015469E+07,
2461176.500000000, A.D. 2026-May-16 00:00:00.0000, 3.882833679618933E+08, 2.862492659884466E+08, -3.423445900359638E+07,
2461183.500000000, A.D. 2026-May-23 00:00:00.0000, 3.828488660261874E+08, 2.956967015545564E+08, -3.411054336049984E+07,
2461190.500000000, A.D. 2026-May-30 00:00:00.0000, 3.772514089299085E+08, 3.050182405018136E+08, -3.397210775533259E+07,
2461197.500000000, A.D. 2026-Jun-06 00:00:00.0000, 3.714947383370104E+08, 3.142110167332832E+08, -3.381933339839336E+07,
2461204.500000000, A.D. 2026-Jun-13 00:00:00.0000, 3.655826371835306E+08, 3.232722993921019E+08, -3.365240787734392E+07,
2461211.500000000, A.D. 2026-Jun-20 00:00:00.0000, 3.595189247689475E+08, 3.321994916427521E+08, -3.347152487798294E+07,
2461218.500000000, A.D. 2026-Jun-27 00:00:00.0000, 3.533074516228798E+08, 3.409901299938170E+08, -3.327688380764367E+07,
2461225.500000000, A.D. 2026-Jul-04 00:00:00.0000, 3.469520941582460E+08, 3.496418834026870E+08, -3.306868938594203E+07,
2461232.500000000, A.D. 2026-Jul-11 00:00:00.0000, 3.404567493749513E+08, 3.581525520459129E+08, -3.284715123832239E+07,
2461239.500000000, A.D. 2026-Jul-18 00:00:00.0000, 3.338253297155914E+08, 3.665200657966475E+08, -3.261248350008057E+07,
2461246.500000000, A.D. 2026-Jul-25 00:00:00.0000, 3.270617581050231E+08, 3.747424824276612E+08, -3.236490443403383E+07,
2461253.500000000, A.D. 2026-Aug-01 00:00:00.0000, 3.201699632280124E+08, 3.828179855076354E+08, -3.210463607120675E+07,
2461260.500000000, A.D. 2026-Aug-08 00:00:00.0000, 3.131538752648457E+08, 3.907448819707646E+08, -3.183190389808980E+07,
2461267.500000000, A.D. 2026-Aug-15 00:00:00.0000, 3.060174225041543E+08, 3.985215998257589E+08, -3.154693659258774E+07,
2461274.500000000, A.D. 2026-Aug-22 00:00:00.0000, 2.987645280747712E+08, 4.061466872399241E+08, -3.124996563973749E+07,
2461281.500000000, A.D. 2026-Aug-29 00:00:00.0000, 2.913991045076504E+08, 4.136188116393628E+08, -3.094122472969934E+07,
2461288.500000000, A.D. 2026-Sep-05 00:00:00.0000, 2.839250482614989E+08, 4.209367559732333E+08, -3.062094936845967E+07,
$$EOE